{
  "links" : {
    "next" : "https://api.nasa.gov/neo/rest/v1/feed?start_date=2013-05-23&end_date=2013-05-23&detailed=true&api_key=t0TVs3DtDT2H8Oy2Zy8m2eVrNsAVKAexjcZXUckd",
    "prev" : "https://api.nasa.gov/neo/rest/v1/feed?start_date=2013-05-21&end_date=2013-05-21&detailed=true&api_key=t0TVs3DtDT2H8Oy2Zy8m2eVrNsAVKAexjcZXUckd",
    "self" : "https://api.nasa.gov/neo/rest/v1/feed?start_date=2013-05-22&end_date=2013-05-22&detailed=true&api_key=t0TVs3DtDT2H8Oy2Zy8m2eVrNsAVKAexjcZXUckd"
  },
  "element_count" : 11,
  "near_earth_objects" : {
    "2013-05-22" : [ {
      "links" : {
        "self" : "https://api.nasa.gov/neo/rest/v1/neo/3157028?api_key=t0TVs3DtDT2H8Oy2Zy8m2eVrNsAVKAexjcZXUckd"
      },
      "neo_reference_id" : "3157028",
      "name" : "(2003 MK4)",
      "nasa_jpl_url" : "http://ssd.jpl.nasa.gov/sbdb.cgi?sstr=3157028",
      "absolute_magnitude_h" : 20.9,
      "estimated_diameter" : {
        "kilometers" : {
          "estimated_diameter_min" : 0.1756123185,
          "estimated_diameter_max" : 0.3926810818
        },
        "meters" : {
          "estimated_diameter_min" : 175.6123184804,
          "estimated_diameter_max" : 392.6810818086
        },
        "miles" : {
          "estimated_diameter_min" : 0.1091204019,
          "estimated_diameter_max" : 0.2440006365
        },
        "feet" : {
          "estimated_diameter_min" : 576.1559189633,
          "estimated_diameter_max" : 1288.3238004408
        }
      },
      "is_potentially_hazardous_asteroid" : true,
      "close_approach_data" : [ {
        "close_approach_date" : "2013-05-22",
        "epoch_date_close_approach" : 1369206000000,
        "relative_velocity" : {
          "kilometers_per_second" : "9.8128095488",
          "kilometers_per_hour" : "35326.1143756063",
          "miles_per_hour" : "21950.273679665"
        },
        "miss_distance" : {
          "astronomical" : "0.4831809618",
          "lunar" : "187.9573974609",
          "kilometers" : "72282848",
          "miles" : "44914476"
        },
        "orbiting_body" : "Earth"
      } ],
      "orbital_data" : {
        "orbit_id" : "36",
        "orbit_determination_date" : "2017-04-06 09:14:01",
        "orbit_uncertainty" : "0",
        "minimum_orbit_intersection" : ".002686",
        "jupiter_tisserand_invariant" : "5.645",
        "epoch_osculation" : "2458000.5",
        "eccentricity" : ".1813074742198211",
        "semi_major_axis" : "1.080358900910442",
        "inclination" : "22.31610577352589",
        "ascending_node_longitude" : "282.6096056123453",
        "orbital_period" : "410.1573593775723",
        "perihelion_distance" : ".8844817573354675",
        "perihelion_argument" : "109.6056454321734",
        "aphelion_distance" : "1.276236044485416",
        "perihelion_time" : "2457844.766055641444",
        "mean_anomaly" : "136.6895380206257",
        "mean_motion" : ".8777119117070389",
        "equinox" : "J2000"
      }
    }, {
      "links" : {
        "self" : "https://api.nasa.gov/neo/rest/v1/neo/3182169?api_key=t0TVs3DtDT2H8Oy2Zy8m2eVrNsAVKAexjcZXUckd"
      },
      "neo_reference_id" : "3182169",
      "name" : "(2004 JN1)",
      "nasa_jpl_url" : "http://ssd.jpl.nasa.gov/sbdb.cgi?sstr=3182169",
      "absolute_magnitude_h" : 23.6,
      "estimated_diameter" : {
        "kilometers" : {
          "estimated_diameter_min" : 0.0506471459,
          "estimated_diameter_max" : 0.1132504611
        },
        "meters" : {
          "estimated_diameter_min" : 50.6471458835,
          "estimated_diameter_max" : 113.2504610618
        },
        "miles" : {
          "estimated_diameter_min" : 0.0314706677,
          "estimated_diameter_max" : 0.0703705522
        },
        "feet" : {
          "estimated_diameter_min" : 166.1651821003,
          "estimated_diameter_max" : 371.5566426699
        }
      },
      "is_potentially_hazardous_asteroid" : false,
      "close_approach_data" : [ {
        "close_approach_date" : "2013-05-22",
        "epoch_date_close_approach" : 1369206000000,
        "relative_velocity" : {
          "kilometers_per_second" : "14.0123788094",
          "kilometers_per_hour" : "50444.5637136917",
          "miles_per_hour" : "31344.2901586547"
        },
        "miss_distance" : {
          "astronomical" : "0.3212061533",
          "lunar" : "124.9491958618",
          "kilometers" : "48051756",
          "miles" : "29857978"
        },
        "orbiting_body" : "Earth"
      } ],
      "orbital_data" : {
        "orbit_id" : "21",
        "orbit_determination_date" : "2017-04-06 09:12:49",
        "orbit_uncertainty" : "0",
        "minimum_orbit_intersection" : ".0231683",
        "jupiter_tisserand_invariant" : "5.694",
        "epoch_osculation" : "2458000.5",
        "eccentricity" : ".1755281002971447",
        "semi_major_axis" : "1.085053919527081",
        "inclination" : "1.499707987243189",
        "ascending_node_longitude" : "143.9720934468935",
        "orbital_period" : "412.8339519813857",
        "perihelion_distance" : ".8945964663125213",
        "perihelion_argument" : "2.124647144481263",
        "aphelion_distance" : "1.27551137274164",
        "perihelion_time" : "2458019.676041011311",
        "mean_anomaly" : "343.2780837648182",
        "mean_motion" : ".8720213012330731",
        "equinox" : "J2000"
      }
    }, {
      "links" : {
        "self" : "https://api.nasa.gov/neo/rest/v1/neo/3484839?api_key=t0TVs3DtDT2H8Oy2Zy8m2eVrNsAVKAexjcZXUckd"
      },
      "neo_reference_id" : "3484839",
      "name" : "(2010 AO2)",
      "nasa_jpl_url" : "http://ssd.jpl.nasa.gov/sbdb.cgi?sstr=3484839",
      "absolute_magnitude_h" : 22.6,
      "estimated_diameter" : {
        "kilometers" : {
          "estimated_diameter_min" : 0.0802703167,
          "estimated_diameter_max" : 0.1794898848
        },
        "meters" : {
          "estimated_diameter_min" : 80.2703167283,
          "estimated_diameter_max" : 179.4898847799
        },
        "miles" : {
          "estimated_diameter_min" : 0.049877647,
          "estimated_diameter_max" : 0.1115298092
        },
        "feet" : {
          "estimated_diameter_min" : 263.3540659348,
          "estimated_diameter_max" : 588.8775935812
        }
      },
      "is_potentially_hazardous_asteroid" : false,
      "close_approach_data" : [ {
        "close_approach_date" : "2013-05-22",
        "epoch_date_close_approach" : 1369206000000,
        "relative_velocity" : {
          "kilometers_per_second" : "15.4391428078",
          "kilometers_per_hour" : "55580.9141080717",
          "miles_per_hour" : "34535.8185467627"
        },
        "miss_distance" : {
          "astronomical" : "0.4000256384",
          "lunar" : "155.6099700928",
          "kilometers" : "59842984",
          "miles" : "37184708"
        },
        "orbiting_body" : "Earth"
      } ],
      "orbital_data" : {
        "orbit_id" : "14",
        "orbit_determination_date" : "2017-04-06 08:58:40",
        "orbit_uncertainty" : "2",
        "minimum_orbit_intersection" : ".167715",
        "jupiter_tisserand_invariant" : "5.923",
        "epoch_osculation" : "2458000.5",
        "eccentricity" : ".3379069354937844",
        "semi_major_axis" : "1.012266820626356",
        "inclination" : "19.58318908242299",
        "ascending_node_longitude" : "289.9645159523118",
        "orbital_period" : "371.9982784090055",
        "perihelion_distance" : ".6702148413664677",
        "perihelion_argument" : "323.5746976903775",
        "aphelion_distance" : "1.354318799886244",
        "perihelion_time" : "2457927.247858354207",
        "mean_anomaly" : "70.88949740646758",
        "mean_motion" : ".9677464141492245",
        "equinox" : "J2000"
      }
    } ]
  }
}